CZ-4B R/B               
1 28059U 03049C   17159.69874256 -.00000003  00000-0  11348-4 0  9995
2 28059  98.5627  45.4750 0048947 273.4498 158.3527 14.52489090722449
CZ-2C R/B               
1 28222U 04012C   17159.81799135  .00000402  00000-0  28705-4 0  9991
2 28222  97.5244 116.4669 0047417 212.8730 176.8773 15.09230422719316
SL-16 R/B               
1 28353U 04021B   17159.94344403 -.00000007  00000-0  21066-4 0  9999
2 28353  71.0003  95.7547 0006577 226.2740 133.7838 14.14191394670989
CZ-2C R/B               
1 28480U 04046B   17159.32389062  .00000021  00000-0  24010-4 0  9996
2 28480  98.1955 256.0850 0140830 250.5398 144.5861 14.25639059652955
ARIANE 5 R/B            
1 28499U 04049H   17159.68465022  .00000041  00000-0  12681-4 0  9992
2 28499  98.0787 242.6534 0091202 242.6892 274.1247 14.79816310672693
CZ-2D R/B               
1 28738U 05024B   17159.52585055  .00000461  00000-0  31236-4 0  9997
2 28738  97.4975 196.5764 0013289  41.0809 319.1420 15.11138375654509
SUZAKU (ASTRO-EII)      
1 28773U 05025A   17159.89570727  .00000964  00000-0  44771-4 0  9993
2 28773  31.3839 350.2012 0004977 264.6936  95.3143 15.15803475656115
ALOS (DAICHI)           
1 28931U 06002A   17159.92729226  .00000146  00000-0  37447-4 0  9993
2 28931  97.8444 187.6975 0001645  56.4229 303.7131 14.62358035606252
H-2A R/B                
1 28932U 06002B   17159.69459162  .00000200  00000-0  25113-4 0  9995
2 28932  98.2073  82.2399 0089614 340.2705  50.7537 14.91366856616433
AKARI (ASTRO-F)         
1 28939U 06005A   17159.72927603  .00002300  00000-0  73160-4 0  9997
2 28939  98.2530 359.9918 0106168 215.1752 144.2446 15.28589911611809
RESURS-DK 1             
1 29228U 06021A   17159.85064114  .00000086  00000-0  13949-4 0  9998
2 29228  69.9350 119.2884 0005839 322.4280  37.6472 15.02158002606843
GENESIS 1               
1 29252U 06029A   17159.52111722  .00000094  00000-0  15067-4 0  9997
2 29252  64.5054 313.8153 0014041 313.0686  79.4805 15.16772559600431
CZ-4B R/B               
1 29507U 06046C   17159.93239963 -.00000521  00000-0 -35942-4 0  9993
2 29507  97.7873 167.4865 0042949 267.9643  91.6662 15.00073921579759
CZ-2C R/B               
1 31114U 07010B   17159.73816220 -.00000001  00000-0  19008-4 0  9994
2 31114  98.3997  62.6564 0058673 239.6732 119.8633 14.19243093526311
COSMO-SKYMED 1          
1 31598U 07023A   17159.93725020  .00000036  00000-0  11078-4 0  9999
2 31598  97.8831 343.7683 0001304  85.1745 274.9631 14.82158418541224
GENESIS 2               
1 31789U 07028A   17159.81986543  .00000157  00000-0  18677-4 0  9998
2 31789  64.5043 350.7514 0030885 223.5551 136.3133 15.16044297547649
COSMOS 2428             
1 31792U 07029A   17159.91654248  .00000158  00000-0  11211-3 0  9995
2 31792  70.9167  69.4699 0010898 277.1994  82.7888 14.12269659512815
SL-16 R/B               
1 31793U 07029B   17159.95567826  .00000267  00000-0  16457-3 0  9993
2 31793  70.9763  46.4548 0001802 252.6197 191.7204 14.14379735513514
KORONAS-FOTON           
1 33504U 09003A   17159.64687432  .00000628  00000-0  31926-4 0  9991
2 33504  82.4437 241.4637 0020646 136.2350 224.0523 15.14821064460088
TIANGONG 1              
1 37820U 11053A   17159.95716435  .00017163  00000-0  97238-4 0  9994
2 37820  42.7601 250.3769 0018929  14.9047 320.3669 15.78511011326660
CZ-3B R/B               
1 38253U 12018D   17159.79930691  .00567694  52946-5  17930-3 0  9991
2 38253  54.8516 214.6433 1419723 255.7253  88.2349 13.09752778127194
H-2A R/B                
1 38341U 12025E   17159.60575035  .00000159  00000-0  26372-4 0  9992
2 38341  98.4344 236.1485 0055925 184.6541 175.4158 14.83571925273522
CUSAT 2 & FALCON 9 R/B  
1 39271U 13055G   17159.82816703  .00003171  00000-0  82235-4 0  9990
2 39271  80.9686   5.9781 0633098 226.9612 127.6884 14.37037941191420
ALOS-2                  
1 39766U 14029A   17159.86375865 -.00000257  00000-0 -27588-4 0  9998
2 39766  97.9214 257.3051 0001704  85.2968 274.8439 14.79468147164377
ASTRO-H (HITOMI)        
1 41337U 16012A   17159.46281650  .00000239  00000-0  12562-4 0  9997
2 41337  31.0046 174.0839 0012525 314.3842  45.5767 14.98305939 71616
